
# Worst residual: 29.45 km
# MJD 57932.000000 (2017 Jun 28  0:00)
2011-037B = TA29DCF = Spektr-R booster
1 46736U 11037ND  17179.49919926  .00000000  00000-0  00000-0 0  1400
2 46736 068.9470 301.9055 7295952 356.1970 307.9535 00.11184398    02

# Worst residual: 105.71 km
# MJD 57933.000000 (2017 Jun 29  0:00)
2011-037B = TA29DCF = Spektr-R booster
1 46736U 11037ND  17180.49919926  .00000000  00000-0  00000-0 0  1402
2 46736 068.8091 301.7628 7344912 356.5096 348.3317 00.11062376    06

# Worst residual: 44.48 km
# MJD 57934.000000 (2017 Jun 30  0:00)
2011-037B = TA29DCF = Spektr-R booster
1 46736U 11037ND  17181.49919926  .00000000  00000-0  00000-0 0  1403
2 46736 068.9317 301.7977 7309582 356.7830 028.7967 00.11309793    04

# Worst residual: 11.29 km
# MJD 57935.000000 (2017 Jul  1  0:00)
2011-037B = TA29DCF = Spektr-R booster
1 46736U 11037ND  17182.49919926  .00000000  00000-0  00000-0 0  1404
2 46736 068.9399 301.7531 7311050 356.6370 069.9656 00.11389455    06

# Worst residual: 10.85 km
# MJD 57936.000000 (2017 Jul  2  0:00)
2011-037B = TA29DCF = Spektr-R booster
1 46736U 11037ND  17183.49919926  .00000000  00000-0  00000-0 0  1405
2 46736 069.0551 301.6515 7322226 356.7153 110.7709 00.11388517    08

# Worst residual: 8.35 km
# MJD 57937.000000 (2017 Jul  3  0:00)
2011-037B = TA29DCF = Spektr-R booster
1 46736U 11037ND  17184.49919926  .00000000  00000-0  00000-0 0  1406
2 46736 069.1448 301.5958 7331031 356.8316 151.4294 00.11383118    03

# Worst residual: 2.25 km
# MJD 57938.000000 (2017 Jul  4  0:00)
2011-037B = TA29DCF = Spektr-R booster
1 46736U 11037ND  17185.49919926  .00000000  00000-0  00000-0 0  1407
2 46736 069.1408 301.5749 7335326 356.9189 192.1725 00.11380607    08

# Worst residual: 15.98 km
# MJD 57939.000000 (2017 Jul  5  0:00)
2011-037B = TA29DCF = Spektr-R booster
1 46736U 11037ND  17186.49919926  .00000000  00000-0  00000-0 0  1408
2 46736 069.0646 301.5582 7333517 356.9149 233.2150 00.11367402    09

# Worst residual: 37.38 km
# MJD 57940.000000 (2017 Jul  6  0:00)
2011-037B = TA29DCF = Spektr-R booster
1 46736U 11037ND  17187.49919926  .00000000  00000-0  00000-0 0  1409
2 46736 068.9841 301.5431 7329705 356.7032 274.6989 00.11302969    06

# Worst residual: 94.34 km
# MJD 57941.000000 (2017 Jul  7  0:00)
2011-037B = TA29DCF = Spektr-R booster
1 46736U 11037ND  17188.49919926  .00000000  00000-0  00000-0 0  1400
2 46736 068.9393 301.5956 7353847 356.0400 316.6372 00.11027418    02

# Worst residual: 323.45 km
# MJD 57942.000000 (2017 Jul  8  0:00)
2011-037B = TA29DCF = Spektr-R booster
1 46736U 11037ND  17189.49919926  .00000000  00000-0  00000-0 0  1401
2 46736 068.7936 301.6826 7474543 356.9510 356.3910 00.10691004    04

# Worst residual: 88.72 km
# MJD 57943.000000 (2017 Jul  9  0:00)
2011-037B = TA29DCF = Spektr-R booster
1 46736U 11037ND  17190.49919926  .00000000  00000-0  00000-0 0  1403
2 46736 068.8839 301.6179 7382906 357.5914 036.6207 00.11145862    08

# Worst residual: 25.58 km
# MJD 57944.000000 (2017 Jul 10  0:00)
2011-037B = TA29DCF = Spektr-R booster
1 46736U 11037ND  17191.49919926  .00000000  00000-0  00000-0 0  1404
2 46736 068.8255 301.6744 7370902 357.1287 078.3303 00.11344917    02

# Worst residual: 6.94 km
# MJD 57945.000000 (2017 Jul 11  0:00)
2011-037B = TA29DCF = Spektr-R booster
1 46736U 11037ND  17192.49919926  .00000000  00000-0  00000-0 0  1405
2 46736 068.7602 301.6791 7374620 357.0568 119.5544 00.11376123    00

# Worst residual: 5.88 km
# MJD 57946.000000 (2017 Jul 12  0:00)
2011-037B = TA29DCF = Spektr-R booster
1 46736U 11037ND  17193.49919926  .00000000  00000-0  00000-0 0  1406
2 46736 068.8051 301.6452 7374669 357.1081 160.5107 00.11374262    00

# Worst residual: 8.40 km
# MJD 57947.000000 (2017 Jul 13  0:00)
2011-037B = TA29DCF = Spektr-R booster
1 46736U 11037ND  17194.49919926  .00000000  00000-0  00000-0 0  1407
2 46736 068.9308 301.6189 7373011 357.1900 201.2447 00.11366914    08

# Worst residual: 9.49 km
# MJD 57948.000000 (2017 Jul 14  0:00)
2011-037B = TA29DCF = Spektr-R booster
1 46736U 11037ND  17195.49919926  .00000000  00000-0  00000-0 0  1408
2 46736 069.0228 301.6146 7372576 357.2822 241.8294 00.11367584    07

# Worst residual: 13.56 km
# MJD 57949.000000 (2017 Jul 15  0:00)
2011-037B = TA29DCF = Spektr-R booster
1 46736U 11037ND  17196.49919926  .00000000  00000-0  00000-0 0  1409
2 46736 068.9847 301.5913 7373242 357.4106 282.3561 00.11386322    09

# Worst residual: 26.48 km
# MJD 57950.000000 (2017 Jul 16  0:00)
2011-037B = TA29DCF = Spektr-R booster
1 46736U 11037ND  17197.49919926  .00000000  00000-0  00000-0 0  1400
2 46736 068.8650 301.5031 7369843 357.5988 322.9564 00.11443725    07

# Worst residual: 70.30 km
# MJD 57951.000000 (2017 Jul 17  0:00)
2011-037B = TA29DCF = Spektr-R booster
1 46736U 11037ND  17198.49919926  .00000000  00000-0  00000-0 0  1401
2 46736 068.8270 301.4495 7351299 357.4811 004.0740 00.11541889    02

# Worst residual: 29.67 km
# MJD 57952.000000 (2017 Jul 18  0:00)
2011-037B = TA29DCF = Spektr-R booster
1 46736U 11037ND  17199.49919926  .00000000  00000-0  00000-0 0  1402
2 46736 068.7939 301.3641 7380144 357.1963 045.3844 00.11524216    09

# Worst residual: 11.79 km
# MJD 57953.000000 (2017 Jul 19  0:00)
2011-037B = TA29DCF = Spektr-R booster
1 46736U 11037ND  17200.49919926  .00000000  00000-0  00000-0 0  1405
2 46736 068.8303 301.2752 7399139 357.3451 086.2313 00.11474808    01

# Worst residual: 18.28 km
# MJD 57954.000000 (2017 Jul 20  0:00)
2011-037B = TA29DCF = Spektr-R booster
1 46736U 11037ND  17201.49919926  .00000000  00000-0  00000-0 0  1406
2 46736 068.9395 301.1993 7414512 357.3680 127.4714 00.11484684    02

# Worst residual: 44.56 km
# MJD 57955.000000 (2017 Jul 21  0:00)
2011-037B = TA29DCF = Spektr-R booster
1 46736U 11037ND  17202.49919926  .00000000  00000-0  00000-0 0  1407
2 46736 069.2785 301.1154 7453481 357.2725 169.2673 00.11527748    02

# Worst residual: 51.74 km
# MJD 57956.000000 (2017 Jul 22  0:00)
2011-037B = TA29DCF = Spektr-R booster
1 46736U 11037ND  17203.49919926  .00000000  00000-0  00000-0 0  1408
2 46736 069.7052 301.0914 7540465 357.2344 211.4548 00.11601499    00

# Worst residual: 42.36 km
# MJD 57957.000000 (2017 Jul 23  0:00)
2011-037B = TA29DCF = Spektr-R booster
1 46736U 11037ND  17204.49919926  .00000000  00000-0  00000-0 0  1409
2 46736 069.7399 301.0885 7627099 357.3941 253.8519 00.11656813    02

# Worst residual: 37.35 km
# MJD 57958.000000 (2017 Jul 24  0:00)
2011-037B = TA29DCF = Spektr-R booster
1 46736U 11037ND  17205.49919926  .00000000  00000-0  00000-0 0  1400
2 46736 069.6246 301.0649 7668684 357.3914 296.5874 00.11603550    03

# Worst residual: 206.65 km
# MJD 57959.000000 (2017 Jul 25  0:00)
2011-037B = TA29DCF = Spektr-R booster
1 46736U 11037ND  17206.49919926  .00000000  00000-0  00000-0 0  1401
2 46736 069.4085 301.0121 7730454 357.1228 339.3639 00.11243313    00
